IRIDIUM 65 [+]          
1 25288U 98021D   13022.39394551  .00000250  00000-0  82296-4 0  1521
2 25288  86.3962 175.4707 0002172  89.9772 270.1692 14.34219447774718
IRIDIUM 66 [+]          
1 25289U 98021E   13022.40029016  .00000174  00000-0  54991-4 0   968
2 25289  86.3964 175.3853 0002077  86.6207 273.5245 14.34218650774719
IRIDIUM 67 [+]          
1 25290U 98021F   13022.40663225  .00000195  00000-0  62524-4 0  9240
2 25290  86.3965 175.4942 0002134  85.0101 275.1347 14.34218454774726
IRIDIUM 68 [+]          
1 25291U 98021G   13022.41297995  .00000185  00000-0  58838-4 0  1490
2 25291  86.3969 175.5802 0002079  83.9217 276.2224 14.34218532774699
IRIDIUM 69 [-]          
1 25319U 98026A   13022.49362516  .00000216  00000-0  65328-4 0  9480
2 25319  86.3991 201.1144 0003574 123.7722 315.9182 14.37648811772103
IRIDIUM 71 [-]          
1 25320U 98026B   13022.50540203  .00000211  00000-0  63159-4 0  6498
2 25320  86.3981 197.8003 0002219 163.7671 274.7556 14.38171807772464
IRIDIUM 70 [+]          
1 25342U 98032A   13022.36857407  .00000240  00000-0  78647-4 0  1811
2 25342  86.3971 175.7644 0001929  90.7816 269.3610 14.34219032768791
IRIDIUM 72 [+]          
1 25343U 98032B   13022.35589378  .00000250  00000-0  82087-4 0  1623
2 25343  86.3970 175.4875 0002101  85.3593 274.7842 14.34218756768798
IRIDIUM 73 [-]          
1 25344U 98032C   13022.43432045  .00000246  00000-0  61180-4 0   367
2 25344  86.4473 161.4033 0002392  92.1282 326.9083 14.47778182774963
IRIDIUM 74 [S]          
1 25345U 98032D   13022.37632765  .00000307  00000-0  85921-4 0  2271
2 25345  86.4479 175.7340 0002154  79.6002 280.5465 14.42956335771043
IRIDIUM 75 [+]          
1 25346U 98032E   13022.36223072  .00000256  00000-0  84179-4 0  1869
2 25346  86.3968 175.6793 0002151  86.3881 273.7561 14.34219318769361
IRIDIUM 3 [+]           
1 25431U 98048A   13022.41640512  .00000048  00000-0  10162-4 0  1072
2 25431  86.3933 207.2175 0001945  89.7549 270.3857 14.34218852755315
IRIDIUM 76 [+]          
1 25432U 98048B   13022.50519980  .00000019  00000-0 -19301-6 0   497
2 25432  86.3936 206.9859 0001852  76.1718 283.9686 14.34222081755318
IRIDIUM 82 [+]          
1 25467U 98051A   13022.47452287 -.00000279  00000-0 -10655-3 0  2830
2 25467  86.3963 333.6372 0002910  89.3690 270.7899 14.34216300756324
IRIDIUM 81 [+]          
1 25468U 98051B   13022.32863919  .00000265  00000-0  87470-4 0  1037
2 25468  86.3968 333.3900 0002484  80.4687 279.6793 14.34217986752528
IRIDIUM 80 [+]          
1 25469U 98051C   13022.30960100  .00000349  00000-0  11751-3 0  1060
2 25469  86.3965 333.6088 0002501  80.4714 279.6778 14.34217502752524
IRIDIUM 77 [+]          
1 25471U 98051E   13022.47732006  .00000206  00000-0  66487-4 0  2759
2 25471  86.3997 333.2747 0001848 113.3032 359.5028 14.34218343757741
IRIDIUM 2 [-]           
1 25527U 98066A   13022.19332617  .00002541  00000-0  18740-3 0  6194
2 25527  85.5599 250.0302 0009891 153.4105 355.0649 15.02803091775282
IRIDIUM 86 [+]          
1 25528U 98066B   13022.27440618  .00000318  00000-0  10642-3 0  3331
2 25528  86.3956 301.5718 0002187  92.1231 268.0209 14.34226468749043
IRIDIUM 84 [+]          
1 25530U 98066D   13022.30612036  .00000386  00000-0  13081-3 0  9851
2 25530  86.3957 301.6947 0002351  77.0050 283.1421 14.34226702746688
IRIDIUM 83 [+]          
1 25531U 98066E   13022.40759572  .00000307  00000-0  10242-3 0  1222
2 25531  86.3958 301.7133 0002369  79.3057 280.8398 14.34225731744056
IRIDIUM 20 [+]          
1 25577U 98074A   13022.46713865  .00000115  00000-0  33850-4 0   274
2 25577  86.3930 206.9468 0002159  80.4994 279.6462 14.34223268738147
IRIDIUM 11 [+]          
1 25578U 98074B   13022.41005312  .00000059  00000-0  14152-4 0  2634
2 25578  86.3930 207.1875 0002307  85.1533 274.9924 14.34222656747106
IRIDIUM 14 [S]          
1 25777U 99032A   13022.36717982 -.00000124  00000-0 -33926-4 0  2823
2 25777  86.5142 175.5550 0002471  80.4764 279.6760 14.54940660723151
IRIDIUM 21 [+]          
1 25778U 99032B   13022.41931519  .00000164  00000-0  51341-4 0  1006
2 25778  86.3961 175.5482 0001648  39.7770 320.3544 14.34219030717810
IRIDIUM 91 [+]          
1 27372U 02005A   13022.52763948  .00000069  00000-0  17641-4 0  7064
2 27372  86.3929 239.0844 0005019  88.1505 272.0272 14.34217720581346
IRIDIUM 90 [S]          
1 27373U 02005B   13022.29207945  .00000384  00000-0  10876-3 0  6925
2 27373  86.4475 301.6726 0003453 351.8849   8.2292 14.42960271579635
IRIDIUM 94 [S]          
1 27374U 02005C   13022.42906257  .00000077  00000-0  20465-4 0  8706
2 27374  86.3931 207.2859 0002065 284.7953  75.3018 14.34223058585654
IRIDIUM 95 [+]          
1 27375U 02005D   13022.56568994  .00000080  00000-0  21519-4 0  6707
2 27375  86.3931 238.8613 0002049  81.0747 279.0688 14.34217723580635
IRIDIUM 96 [S]          
1 27376U 02005E   13022.13237831  .00000084  00000-0  19321-4 0  8584
2 27376  87.1864 244.4480 0002076 308.3166  51.7835 14.42844053585696
IRIDIUM 97 [+]          
1 27450U 02031A   13022.23296410  .00000250  00000-0  82261-4 0  5737
2 27450  86.3941 270.5635 0004796  85.1797 274.9943 14.34215442559908
IRIDIUM 98 [S]          
1 27451U 02031B   13022.31745680  .00000409  00000-0  11621-3 0  6609
2 27451  86.4450 334.0364 0005724  80.7719 279.4136 14.42955973560496
